{"type": "FeatureCollection", "metadata": {"generated_at": "2026-09-30T00:00:00Z", "source": "Sentinel-1 SAR / GEE Macro Deformation Proxy", "processing_method": "SAR_AMPLITUDE_PROXY", "is_simulated": true, "total_points": 18}, "features": [{"type": "Feature", "properties": {"point_id": "INC_HW_01_SAR_001", "velocity_mm_yr": -42.5, "coherence": 0.81, "source": "sentinel1_sar_proxy", "processing_method": "SAR_AMPLITUDE_PROXY", "is_simulated": true, "node_code": "INC_HW_01"}, "geometry": {"type": "Point", "coordinates": [116.852, -1.237]}}, {"type": "Feature", "properties": {"point_id": "INC_HW_01_SAR_002", "velocity_mm_yr": -58.2, "coherence": 0.76, "source": "sentinel1_sar_proxy", "processing_method": "SAR_AMPLITUDE_PROXY", "is_simulated": true, "node_code": "INC_HW_01"}, "geometry": {"type": "Point", "coordinates": [116.8524, -1.2368]}}, {"type": "Feature", "properties": {"point_id": "INC_HW_01_SAR_003", "velocity_mm_yr": -85.1, "coherence": 0.67, "source": "sentinel1_sar_proxy", "processing_method": "SAR_AMPLITUDE_PROXY", "is_simulated": true, "node_code": "INC_HW_01"}, "geometry": {"type": "Point", "coordinates": [116.8517, -1.2373]}}, {"type": "Feature", "properties": {"point_id": "INC_HW_01_SAR_004", "velocity_mm_yr": -32.4, "coherence": 0.84, "source": "sentinel1_sar_proxy", "processing_method": "SAR_AMPLITUDE_PROXY", "is_simulated": true, "node_code": "INC_HW_01"}, "geometry": {"type": "Point", "coordinates": [116.8528, -1.2375]}}, {"type": "Feature", "properties": {"point_id": "INC_HW_01_SAR_005", "velocity_mm_yr": -18.7, "coherence": 0.89, "source": "sentinel1_sar_proxy", "processing_method": "SAR_AMPLITUDE_PROXY", "is_simulated": true, "node_code": "INC_HW_01"}, "geometry": {"type": "Point", "coordinates": [116.8512, -1.2365]}}, {"type": "Feature", "properties": {"point_id": "INC_HW_01_SAR_006", "velocity_mm_yr": -6.5, "coherence": 0.93, "source": "sentinel1_sar_proxy", "processing_method": "SAR_AMPLITUDE_PROXY", "is_simulated": true, "node_code": "INC_HW_01"}, "geometry": {"type": "Point", "coordinates": [116.8505, -1.236]}}, {"type": "Feature", "properties": {"point_id": "INC_HW_01_SAR_007", "velocity_mm_yr": -96.3, "coherence": 0.63, "source": "sentinel1_sar_proxy", "processing_method": "SAR_AMPLITUDE_PROXY", "is_simulated": true, "node_code": "INC_HW_01"}, "geometry": {"type": "Point", "coordinates": [116.8519, -1.2372]}}, {"type": "Feature", "properties": {"point_id": "INC_HW_01_SAR_008", "velocity_mm_yr": -28.0, "coherence": 0.86, "source": "sentinel1_sar_proxy", "processing_method": "SAR_AMPLITUDE_PROXY", "is_simulated": true, "node_code": "INC_HW_01"}, "geometry": {"type": "Point", "coordinates": [116.8532, -1.2369]}}, {"type": "Feature", "properties": {"point_id": "INC_HW_01_SAR_009", "velocity_mm_yr": -14.2, "coherence": 0.9, "source": "sentinel1_sar_proxy", "processing_method": "SAR_AMPLITUDE_PROXY", "is_simulated": true, "node_code": "INC_HW_01"}, "geometry": {"type": "Point", "coordinates": [116.8535, -1.2378]}}, {"type": "Feature", "properties": {"point_id": "INC_HW_01_SAR_010", "velocity_mm_yr": -71.8, "coherence": 0.71, "source": "sentinel1_sar_proxy", "processing_method": "SAR_AMPLITUDE_PROXY", "is_simulated": true, "node_code": "INC_HW_01"}, "geometry": {"type": "Point", "coordinates": [116.8522, -1.2374]}}, {"type": "Feature", "properties": {"point_id": "INC_HW_01_SAR_011", "velocity_mm_yr": -49.3, "coherence": 0.79, "source": "sentinel1_sar_proxy", "processing_method": "SAR_AMPLITUDE_PROXY", "is_simulated": true, "node_code": "INC_HW_01"}, "geometry": {"type": "Point", "coordinates": [116.8515, -1.2369]}}, {"type": "Feature", "properties": {"point_id": "INC_HW_01_SAR_012", "velocity_mm_yr": -11.0, "coherence": 0.91, "source": "sentinel1_sar_proxy", "processing_method": "SAR_AMPLITUDE_PROXY", "is_simulated": true, "node_code": "INC_HW_01"}, "geometry": {"type": "Point", "coordinates": [116.8508, -1.2375]}}, {"type": "Feature", "properties": {"point_id": "INC_HW_01_SAR_013", "velocity_mm_yr": -62.5, "coherence": 0.74, "source": "sentinel1_sar_proxy", "processing_method": "SAR_AMPLITUDE_PROXY", "is_simulated": true, "node_code": "INC_HW_01"}, "geometry": {"type": "Point", "coordinates": [116.8526, -1.2371]}}, {"type": "Feature", "properties": {"point_id": "INC_HW_01_SAR_014", "velocity_mm_yr": -88.0, "coherence": 0.66, "source": "sentinel1_sar_proxy", "processing_method": "SAR_AMPLITUDE_PROXY", "is_simulated": true, "node_code": "INC_HW_01"}, "geometry": {"type": "Point", "coordinates": [116.8518, -1.2371]}}, {"type": "Feature", "properties": {"point_id": "INC_HW_01_SAR_015", "velocity_mm_yr": -22.3, "coherence": 0.88, "source": "sentinel1_sar_proxy", "processing_method": "SAR_AMPLITUDE_PROXY", "is_simulated": true, "node_code": "INC_HW_01"}, "geometry": {"type": "Point", "coordinates": [116.853, -1.2364]}}, {"type": "Feature", "properties": {"point_id": "INC_HW_01_SAR_016", "velocity_mm_yr": -5.1, "coherence": 0.94, "source": "sentinel1_sar_proxy", "processing_method": "SAR_AMPLITUDE_PROXY", "is_simulated": true, "node_code": "INC_HW_01"}, "geometry": {"type": "Point", "coordinates": [116.8502, -1.2368]}}, {"type": "Feature", "properties": {"point_id": "INC_HW_01_SAR_017", "velocity_mm_yr": -104.2, "coherence": 0.61, "source": "sentinel1_sar_proxy", "processing_method": "SAR_AMPLITUDE_PROXY", "is_simulated": true, "node_code": "INC_HW_01"}, "geometry": {"type": "Point", "coordinates": [116.8521, -1.2372]}}, {"type": "Feature", "properties": {"point_id": "INC_HW_01_SAR_018", "velocity_mm_yr": -36.7, "coherence": 0.83, "source": "sentinel1_sar_proxy", "processing_method": "SAR_AMPLITUDE_PROXY", "is_simulated": true, "node_code": "INC_HW_01"}, "geometry": {"type": "Point", "coordinates": [116.8525, -1.2376]}}]}